{"type": "FeatureCollection", "features": [ {"type": "Feature", "properties": {"norad_id": 43010, "name": "FENGYUN 3D", "group": "weather", "lat": -79.10328565461985, "lon": 76.64339979646432, "alt_km": 833.6095699253201, "timestamp": "2025-12-11T15:53:39.185388+00:00", "meta": {"OBJECT_NAME": "FENGYUN 3D", "OBJECT_ID": "2017-072A", "EPOCH": "2025-12-11T07:53:22.023168", "MEAN_MOTION": 14.19684111, "ECCENTRICITY": 8.454e-05, "INCLINATION": 98.9894, "RA_OF_ASC_NODE": 311.6177, "ARG_OF_PERICENTER": 186.3632, "MEAN_ANOMALY": 173.7533, "EPHEMERIS_TYPE": 0, "CLASSIFICATION_TYPE": "U", "NORAD_CAT_ID": 43010, "ELEMENT_SET_NO": 999, "REV_AT_EPOCH": 41833, "BSTAR": 0.00027634272, "MEAN_MOTION_DOT": 5.38e-06, "MEAN_MOTION_DDOT": 0}, "tle": {"line1": "1 43010U 17072A   25345.32872712  .00000538  00000+0  27634-3 0  9996", "line2": "2 43010  98.9894 311.6177 0000845 186.3632 173.7533 14.19684111418333"}}, "geometry": {"type": "Point", "coordinates": [76.64339979646432, -79.10328565461985]}}, {"type": "Feature", "properties": {"norad_id": 43013, "name": "NOAA 20 (JPSS-1)", "group": "weather", "lat": 55.69450940473605, "lon": -91.08985499747345, "alt_km": 820.2873819679025, "timestamp": "2025-12-11T15:53:39.185400+00:00", "meta": {"OBJECT_NAME": "NOAA 20 (JPSS-1)", "OBJECT_ID": "2017-073A", "EPOCH": "2025-12-11T07:10:11.376192", "MEAN_MOTION": 14.19525242, "ECCENTRICITY": 0.00021505, "INCLINATION": 98.7597, "RA_OF_ASC_NODE": 281.6113, "ARG_OF_PERICENTER": 89.2942, "MEAN_ANOMALY": 270.8481, "EPHEMERIS_TYPE": 0, "CLASSIFICATION_TYPE": "U", "NORAD_CAT_ID": 43013, "ELEMENT_SET_NO": 999, "REV_AT_EPOCH": 41781, "BSTAR": 0.00011222392, "MEAN_MOTION_DOT": 1.93e-06, "MEAN_MOTION_DDOT": 0}, "tle": {"line1": "1 43013U 17073A   25345.29874278  .00000193  00000+0  11222-3 0  9998", "line2": "2 43013  98.7597 281.6113 0002150  89.2942 270.8481 14.19525242417818"}}, "geometry": {"type": "Point", "coordinates": [-91.08985499747345, 55.69450940473605]}}, {"type": "Feature", "properties": {"norad_id": 43226, "name": "GOES 17", "group": "weather", "lat": 0.2735805907309688, "lon": -130.49268666822672, "alt_km": 35776.53219242167, "timestamp": "2025-12-11T15:53:39.185413+00:00", "meta": {"OBJECT_NAME": "GOES 17", "OBJECT_ID": "2018-022A", "EPOCH": "2025-12-11T04:31:28.917696", "MEAN_MOTION": 1.00271639, "ECCENTRICITY": 0.00033358, "INCLINATION": 0.4562, "RA_OF_ASC_NODE": 89.1254, "ARG_OF_PERICENTER": 187.7299, "MEAN_ANOMALY": 141.6735, "EPHEMERIS_TYPE": 0, "CLASSIFICATION_TYPE": "U", "NORAD_CAT_ID": 43226, "ELEMENT_SET_NO": 999, "REV_AT_EPOCH": 2853, "BSTAR": 0, "MEAN_MOTION_DOT": -1.77e-06, "MEAN_MOTION_DDOT": 0}, "tle": {"line1": "1 43226U 18022A   25345.18852914 -.00000177  00000+0  00000+0 0  9991", "line2": "2 43226   0.4562  89.1254 0003335 187.7299 141.6735  1.00271639 28536"}}, "geometry": {"type": "Point", "coordinates": [-130.49268666822672, 0.2735805907309688]}}, {"type": "Feature", "properties": {"norad_id": 43491, "name": "FENGYUN 2H", "group": "weather", "lat": -1.7200100003176213, "lon": 38.43447047508083, "alt_km": 35797.35643553882, "timestamp": "2025-12-11T15:53:39.185426+00:00", "meta": {"OBJECT_NAME": "FENGYUN 2H", "OBJECT_ID": "2018-050A", "EPOCH": "2025-12-11T01:54:12.536928", "MEAN_MOTION": 1.00271109, "ECCENTRICITY": 0.00029161, "INCLINATION": 2.5468, "RA_OF_ASC_NODE": 81.3429, "ARG_OF_PERICENTER": 165.4782, "MEAN_ANOMALY": 301.137, "EPHEMERIS_TYPE": 0, "CLASSIFICATION_TYPE": "U", "NORAD_CAT_ID": 43491, "ELEMENT_SET_NO": 999, "REV_AT_EPOCH": 2755, "BSTAR": 0, "MEAN_MOTION_DOT": -1.24e-06, "MEAN_MOTION_DDOT": 0}, "tle": {"line1": "1 43491U 18050A   25345.07931177 -.00000124  00000+0  00000+0 0  9995", "line2": "2 43491   2.5468  81.3429 0002916 165.4782 301.1370  1.00271109 27551"}}, "geometry": {"type": "Point", "coordinates": [38.43447047508083, -1.7200100003176213]}}, {"type": "Feature", "properties": {"norad_id": 43689, "name": "METOP-C", "group": "weather", "lat": -10.205455544679108, "lon": -138.1298137727659, "alt_km": 825.2958234424586, "timestamp": "2025-12-11T15:53:39.185438+00:00", "meta": {"OBJECT_NAME": "METOP-C", "OBJECT_ID": "2018-087A", "EPOCH": "2025-12-11T06:33:20.279232", "MEAN_MOTION": 14.21483472, "ECCENTRICITY": 0.0001295, "INCLINATION": 98.6931, "RA_OF_ASC_NODE": 43.0654, "ARG_OF_PERICENTER": 41.0714, "MEAN_ANOMALY": 319.0561, "EPHEMERIS_TYPE": 0, "CLASSIFICATION_TYPE": "U", "NORAD_CAT_ID": 43689, "ELEMENT_SET_NO": 999, "REV_AT_EPOCH": 36813, "BSTAR": 0.00012448456, "MEAN_MOTION_DOT": 2.29e-06, "MEAN_MOTION_DDOT": 0}, "tle": {"line1": "1 43689U 18087A   25345.27315138  .00000229  00000+0  12448-3 0  9997", "line2": "2 43689  98.6931  43.0654 0001295  41.0714 319.0561 14.21483472368136"}}, "geometry": {"type": "Point", "coordinates": [-138.1298137727659, -10.205455544679108]}}, {"type": "Feature", "properties": {"norad_id": 43823, "name": "GEO-KOMPSAT-2A", "group": "weather", "lat": -0.011080913959973356, "lon": 87.27892529613793, "alt_km": 35786.675672791534, "timestamp": "2025-12-11T15:53:39.185449+00:00", "meta": {"OBJECT_NAME": "GEO-KOMPSAT-2A", "OBJECT_ID": "2018-100A", "EPOCH": "2025-12-11T04:54:38.666880", "MEAN_MOTION": 1.00269291, "ECCENTRICITY": 7.05e-06, "INCLINATION": 0.0427, "RA_OF_ASC_NODE": 144.3227, "ARG_OF_PERICENTER": 356.5636, "MEAN_ANOMALY": 141.1986, "EPHEMERIS_TYPE": 0, "CLASSIFICATION_TYPE": "U", "NORAD_CAT_ID": 43823, "ELEMENT_SET_NO": 999, "REV_AT_EPOCH": 2574, "BSTAR": 0, "MEAN_MOTION_DOT": -3.38e-06, "MEAN_MOTION_DDOT": 0}, "tle": {"line1": "1 43823U 18100A   25345.20461420 -.00000338  00000+0  00000+0 0  9991", "line2": "2 43823   0.0427 144.3227 0000070 356.5636 141.1986  1.00269291 25747"}}, "geometry": {"type": "Point", "coordinates": [87.27892529613793, -0.011080913959973356]}}, {"type": "Feature", "properties": {"norad_id": 44387, "name": "METEOR-M2 2", "group": "weather", "lat": -71.25037726971301, "lon": 117.89437434063223, "alt_km": 818.350909242411, "timestamp": "2025-12-11T15:53:39.185468+00:00", "meta": {"OBJECT_NAME": "METEOR-M2 2", "OBJECT_ID": "2019-038A", "EPOCH": "2025-12-11T06:16:41.333664", "MEAN_MOTION": 14.24291069, "ECCENTRICITY": 0.00011945, "INCLINATION": 98.8975, "RA_OF_ASC_NODE": 324.9721, "ARG_OF_PERICENTER": 150.0017, "MEAN_ANOMALY": 210.123, "EPHEMERIS_TYPE": 0, "CLASSIFICATION_TYPE": "U", "NORAD_CAT_ID": 44387, "ELEMENT_SET_NO": 999, "REV_AT_EPOCH": 33454, "BSTAR": 0.00019550507, "MEAN_MOTION_DOT": 4.06e-06, "MEAN_MOTION_DDOT": 0}, "tle": {"line1": "1 44387U 19038A   25345.26158951  .00000406  00000+0  19551-3 0  9996", "line2": "2 44387  98.8975 324.9721 0001194 150.0017 210.1230 14.24291069334547"}}, "geometry": {"type": "Point", "coordinates": [117.89437434063223, -71.25037726971301]}}, {"type": "Feature", "properties": {"norad_id": 47719, "name": "ARKTIKA-M 1", "group": "weather", "lat": 50.15662118702801, "lon": 121.45933321789742, "alt_km": 27755.213333680334, "timestamp": "2025-12-11T15:53:39.185482+00:00", "meta": {"OBJECT_NAME": "ARKTIKA-M 1", "OBJECT_ID": "2021-016A", "EPOCH": "2025-12-09T14:03:23.859648", "MEAN_MOTION": 2.00631311, "ECCENTRICITY": 0.7202538, "INCLINATION": 63.1769, "RA_OF_ASC_NODE": 84.4506, "ARG_OF_PERICENTER": 269.1116, "MEAN_ANOMALY": 15.6235, "EPHEMERIS_TYPE": 0, "CLASSIFICATION_TYPE": "U", "NORAD_CAT_ID": 47719, "ELEMENT_SET_NO": 999, "REV_AT_EPOCH": 3498, "BSTAR": 0, "MEAN_MOTION_DOT": -6.1e-07, "MEAN_MOTION_DDOT": 0}, "tle": {"line1": "1 47719U 21016A   25343.58569282 -.00000061  00000+0  00000+0 0  9996", "line2": "2 47719  63.1769  84.4506 7202538 269.1116  15.6235  2.00631311 34985"}}, "geometry": {"type": "Point", "coordinates": [121.45933321789742, 50.15662118702801]}}, {"type": "Feature", "properties": {"norad_id": 49008, "name": "FENGYUN 3E", "group": "weather", "lat": -49.06565536480981, "lon": 155.96966466506888, "alt_km": 832.304842874335, "timestamp": "2025-12-11T15:53:39.185534+00:00", "meta": {"OBJECT_NAME": "FENGYUN 3E", "OBJECT_ID": "2021-062A", "EPOCH": "2025-12-11T06:21:32.830848", "MEAN_MOTION": 14.19880548, "ECCENTRICITY": 5.756e-05, "INCLINATION": 98.7478, "RA_OF_ASC_NODE": 345.8034, "ARG_OF_PERICENTER": 279.113, "MEAN_ANOMALY": 80.9981, "EPHEMERIS_TYPE": 0, "CLASSIFICATION_TYPE": "U", "NORAD_CAT_ID": 49008, "ELEMENT_SET_NO": 999, "REV_AT_EPOCH": 22991, "BSTAR": 0.00016982334, "MEAN_MOTION_DOT": 3.16e-06, "MEAN_MOTION_DDOT": 0}, "tle": {"line1": "1 49008U 21062A   25345.26496332  .00000316  00000+0  16982-3 0  9994", "line2": "2 49008  98.7478 345.8034 0000575 279.1130  80.9981 14.19880548229919"}}, "geometry": {"type": "Point", "coordinates": [155.96966466506888, -49.06565536480981]}}, {"type": "Feature", "properties": {"norad_id": 51850, "name": "GOES 18", "group": "weather", "lat": -0.000540324104137961, "lon": -177.97863498702674, "alt_km": 35787.714722640405, "timestamp": "2025-12-11T15:53:39.185553+00:00", "meta": {"OBJECT_NAME": "GOES 18", "OBJECT_ID": "2022-021A", "EPOCH": "2025-12-11T04:43:38.646912", "MEAN_MOTION": 1.00271937, "ECCENTRICITY": 6.995e-05, "INCLINATION": 0.0195, "RA_OF_ASC_NODE": 157.0095, "ARG_OF_PERICENTER": 150.9748, "MEAN_ANOMALY": 66.0866, "EPHEMERIS_TYPE": 0, "CLASSIFICATION_TYPE": "U", "NORAD_CAT_ID": 51850, "ELEMENT_SET_NO": 999, "REV_AT_EPOCH": 470, "BSTAR": 0, "MEAN_MOTION_DOT": 1.03e-06, "MEAN_MOTION_DDOT": 0}, "tle": {"line1": "1 51850U 22021A   25345.19697508  .00000103  00000+0  00000+0 0  9992", "line2": "2 51850   0.0195 157.0095 0000699 150.9748  66.0866  1.00271937  4704"}}, "geometry": {"type": "Point", "coordinates": [-177.97863498702674, -0.000540324104137961]}}]}